[{"OBJECT_NAME":"IRIDIUM 111","OBJECT_ID":"2017-003K","EPOCH":"2026-03-09T16:49:02.226144","MEAN_MOTION":14.34218028,"ECCENTRICITY":0.00021015,"INCLINATION":86.3976,"RA_OF_ASC_NODE":129.9805,"ARG_OF_PERICENTER":94.2487,"MEAN_ANOMALY":265.8949,"EPHEMERIS_TYPE":0,"CLASSIFICATION_TYPE":"U","NORAD_CAT_ID":41926,"ELEMENT_SET_NO":999,"REV_AT_EPOCH":47899,"BSTAR":1.777394e-5,"MEAN_MOTION_DOT":7.0e-7,"MEAN_MOTION_DDOT":0},{"OBJECT_NAME":"FENGYUN 1C DEB","OBJECT_ID":"1999-025BWJ","EPOCH":"2026-03-04T10:46:29.475264","MEAN_MOTION":14.2980556,"ECCENTRICITY":0.00261044,"INCLINATION":99.1161,"RA_OF_ASC_NODE":305.4172,"ARG_OF_PERICENTER":305.4864,"MEAN_ANOMALY":54.3881,"EPHEMERIS_TYPE":0,"CLASSIFICATION_TYPE":"U","NORAD_CAT_ID":31495,"ELEMENT_SET_NO":999,"REV_AT_EPOCH":64558,"BSTAR":0.0016110356,"MEAN_MOTION_DOT":4.109e-5,"MEAN_MOTION_DDOT":0}]
